1 53901U 22119R   22282.58334491  .00115256  00000-0  81456-3 0  9993
2 53901  53.2183 180.6529 0001134 106.5932 123.3444 15.73195623  1305